{
  "norad_id": 66547,
  "name": "SHIJIAN-30C (SJ-30C)",
  "history": [
    {
      "epoch": "2026-05-04T17:13:44.732640Z",
      "apogee_km": 526.7359855573768,
      "perigee_km": 512.4039300404629,
      "latitude_deg": 6.711472074113277e-05,
      "longitude_deg": -98.00483232319247,
      "height_km": 523.0563048759502,
      "semi_major_axis_km": 6897.70695779892,
      "eccentricity": 0.0010389,
      "inclination_deg": 51.7982,
      "raan_deg": 23.0347,
      "arg_perigee_deg": 112.623,
      "mean_anomaly_deg": 247.5847,
      "mean_motion_rev_day": 15.15464098
    },
    {
      "epoch": "2026-05-05T07:28:22.992672Z",
      "apogee_km": 526.6694223782933,
      "perigee_km": 512.3635510937338,
      "latitude_deg": 5.23271959494187e-05,
      "longitude_deg": 44.97055839734765,
      "height_km": 523.2173785718845,
      "semi_major_axis_km": 6897.653486736013,
      "eccentricity": 0.00103701,
      "inclination_deg": 51.7983,
      "raan_deg": 20.2545,
      "arg_perigee_deg": 114.5387,
      "mean_anomaly_deg": 245.6672,
      "mean_motion_rev_day": 15.1548172
    },
    {
      "epoch": "2026-05-06T18:17:28.140000Z",
      "apogee_km": 526.5683201129204,
      "perigee_km": 512.3096510355417,
      "latitude_deg": -9.077254950727245e-06,
      "longitude_deg": -125.52697083469536,
      "height_km": 523.6625497254336,
      "semi_major_axis_km": 6897.575985574231,
      "eccentricity": 0.0010336,
      "inclination_deg": 51.7988,
      "raan_deg": 13.4584,
      "arg_perigee_deg": 119.3302,
      "mean_anomaly_deg": 240.8708,
      "mean_motion_rev_day": 15.15507262
    },
    {
      "epoch": "2026-05-07T16:26:52.207008Z",
      "apogee_km": 526.508767826901,
      "perigee_km": 512.2915642202934,
      "latitude_deg": 2.2685967733337452e-05,
      "longitude_deg": -103.11197118344741,
      "height_km": 523.941713391546,
      "semi_major_axis_km": 6897.537166023597,
      "eccentricity": 0.0010306,
      "inclination_deg": 51.799,
      "raan_deg": 9.1336,
      "arg_perigee_deg": 122.4048,
      "mean_anomaly_deg": 237.7927,
      "mean_motion_rev_day": 15.15520056
    },
    {
      "epoch": "2026-05-08T17:46:10.265376Z",
      "apogee_km": 526.4297158198178,
      "perigee_km": 512.2746884791659,
      "latitude_deg": -1.1327397654344225e-05,
      "longitude_deg": -128.9197687414551,
      "height_km": 524.2524578761399,
      "semi_major_axis_km": 6897.489202149492,
      "eccentricity": 0.0010261,
      "inclination_deg": 51.7993,
      "raan_deg": 4.191,
      "arg_perigee_deg": 126.0715,
      "mean_anomaly_deg": 234.1213,
      "mean_motion_rev_day": 15.15535864
    },
    {
      "epoch": "2026-05-09T20:40:24.699072Z",
      "apogee_km": 526.3604611959036,
      "perigee_km": 512.2620769339346,
      "latitude_deg": 1.953251741336095e-05,
      "longitude_deg": -178.83619582033973,
      "height_km": 524.5853837028432,
      "semi_major_axis_km": 6897.448269064918,
      "eccentricity": 0.001022,
      "inclination_deg": 51.7994,
      "raan_deg": 358.9396,
      "arg_perigee_deg": 130.0939,
      "mean_anomaly_deg": 230.0935,
      "mean_motion_rev_day": 15.15549355
    },
    {
      "epoch": "2026-05-10T17:14:49.301952Z",
      "apogee_km": 526.3105416746321,
      "perigee_km": 512.2563577662813,
      "latitude_deg": 4.879125757727946e-05,
      "longitude_deg": -132.29930957651408,
      "height_km": 524.8260998172881,
      "semi_major_axis_km": 6897.420449720456,
      "eccentricity": 0.0010188,
      "inclination_deg": 51.7992,
      "raan_deg": 354.9239,
      "arg_perigee_deg": 133.1699,
      "mean_anomaly_deg": 227.0131,
      "mean_motion_rev_day": 15.15558524
    },
    {
      "epoch": "2026-05-11T18:34:05.226240Z",
      "apogee_km": 526.2683464137763,
      "perigee_km": 512.2431879609776,
      "latitude_deg": -4.345382756741672e-05,
      "longitude_deg": -158.0981335617018,
      "height_km": 525.1148773507949,
      "semi_major_axis_km": 6897.392767187376,
      "eccentricity": 0.0010167,
      "inclination_deg": 51.7989,
      "raan_deg": 349.9814,
      "arg_perigee_deg": 136.9333,
      "mean_anomaly_deg": 223.244,
      "mean_motion_rev_day": 15.15567648
    },
    {
      "epoch": "2026-05-12T16:43:26.284800Z",
      "apogee_km": 526.2317977826297,
      "perigee_km": 512.2342750307453,
      "latitude_deg": 3.7755846096255836e-05,
      "longitude_deg": -135.67042208374227,
      "height_km": 525.335910898151,
      "semi_major_axis_km": 6897.370036406687,
      "eccentricity": 0.0010147,
      "inclination_deg": 51.7984,
      "raan_deg": 345.6567,
      "arg_perigee_deg": 140.0597,
      "mean_anomaly_deg": 220.1128,
      "mean_motion_rev_day": 15.1557514
    },
    {
      "epoch": "2026-05-13T16:27:44.161920Z",
      "apogee_km": 526.1948542882046,
      "perigee_km": 512.2263459284659,
      "latitude_deg": -9.546252507419272e-06,
      "longitude_deg": -137.3537438055505,
      "height_km": 525.5545068853115,
      "semi_major_axis_km": 6897.347600108335,
      "eccentricity": 0.0010126,
      "inclination_deg": 51.7979,
      "raan_deg": 341.0228,
      "arg_perigee_deg": 143.3873,
      "mean_anomaly_deg": 216.7797,
      "mean_motion_rev_day": 15.15582535
    }
  ]
}